{
 "generated_at": "2026-07-19T07:26:41Z",
 "sources": [
  {
   "name": "CelesTrak",
   "url": "https://celestrak.org/NORAD/elements/",
   "license": "frei verfügbar; Attribution. Ursprünglich USSPACECOM/Space-Track."
  },
  {
   "name": "GCAT (J. McDowell, planet4589.org)",
   "url": "https://planet4589.org/space/gcat/",
   "license": "CC-BY 4.0"
  }
 ],
 "satellites": [
  {
   "norad": 58648,
   "name": "TIANMU-1 14",
   "intl": "2023-205D",
   "group": "weather",
   "gcat": {
    "class": "B",
    "category": "MET",
    "owner": "TIANMU",
    "state": "CN"
   },
   "omm": {
    "OBJECT_NAME": "TIANMU-1 14",
    "OBJECT_ID": "2023-205D",
    "EPOCH": "2026-07-18T21:19:25.836672",
    "MEAN_MOTION": 15.2715369,
    "ECCENTRICITY": 0.0006806,
    "INCLINATION": 97.3396,
    "RA_OF_ASC_NODE": 220.137,
    "ARG_OF_PERICENTER": 205.1765,
    "MEAN_ANOMALY": 154.9143,
    "EPHEMERIS_TYPE": 0,
    "CLASSIFICATION_TYPE": "U",
    "NORAD_CAT_ID": 58648,
    "ELEMENT_SET_NO": 999,
    "REV_AT_EPOCH": 14234,
    "BSTAR": 0.00010758,
    "MEAN_MOTION_DOT": 0.00002792,
    "MEAN_MOTION_DDOT": 0
   }
  },
  {
   "norad": 58700,
   "name": "TIANMU-1 15",
   "intl": "2024-004A",
   "group": "weather",
   "gcat": {
    "class": "B",
    "category": "MET",
    "owner": "TIANMU",
    "state": "CN"
   },
   "omm": {
    "OBJECT_NAME": "TIANMU-1 15",
    "OBJECT_ID": "2024-004A",
    "EPOCH": "2026-07-18T19:36:38.718720",
    "MEAN_MOTION": 15.26934779,
    "ECCENTRICITY": 0.0006348,
    "INCLINATION": 97.4673,
    "RA_OF_ASC_NODE": 26.008,
    "ARG_OF_PERICENTER": 213.6041,
    "MEAN_ANOMALY": 146.4796,
    "EPHEMERIS_TYPE": 0,
    "CLASSIFICATION_TYPE": "U",
    "NORAD_CAT_ID": 58700,
    "ELEMENT_SET_NO": 999,
    "REV_AT_EPOCH": 14060,
    "BSTAR": 0.00010585,
    "MEAN_MOTION_DOT": 0.00002725,
    "MEAN_MOTION_DDOT": 0
   }
  },
  {
   "norad": 58701,
   "name": "TIANMU-1 16",
   "intl": "2024-004B",
   "group": "weather",
   "gcat": {
    "class": "B",
    "category": "MET",
    "owner": "TIANMU",
    "state": "CN"
   },
   "omm": {
    "OBJECT_NAME": "TIANMU-1 16",
    "OBJECT_ID": "2024-004B",
    "EPOCH": "2026-07-18T20:55:29.048736",
    "MEAN_MOTION": 15.27038746,
    "ECCENTRICITY": 0.0004667,
    "INCLINATION": 97.4622,
    "RA_OF_ASC_NODE": 25.2775,
    "ARG_OF_PERICENTER": 228.8693,
    "MEAN_ANOMALY": 131.2143,
    "EPHEMERIS_TYPE": 0,
    "CLASSIFICATION_TYPE": "U",
    "NORAD_CAT_ID": 58701,
    "ELEMENT_SET_NO": 999,
    "REV_AT_EPOCH": 14061,
    "BSTAR": 0.00010585,
    "MEAN_MOTION_DOT": 0.00002734,
    "MEAN_MOTION_DDOT": 0
   }
  },
  {
   "norad": 58702,
   "name": "TIANMU-1 17",
   "intl": "2024-004C",
   "group": "weather",
   "gcat": {
    "class": "B",
    "category": "MET",
    "owner": "TIANMU",
    "state": "CN"
   },
   "omm": {
    "OBJECT_NAME": "TIANMU-1 17",
    "OBJECT_ID": "2024-004C",
    "EPOCH": "2026-07-18T20:34:35.177376",
    "MEAN_MOTION": 15.27035837,
    "ECCENTRICITY": 0.0004099,
    "INCLINATION": 97.4649,
    "RA_OF_ASC_NODE": 25.7594,
    "ARG_OF_PERICENTER": 234.4102,
    "MEAN_ANOMALY": 125.6755,
    "EPHEMERIS_TYPE": 0,
    "CLASSIFICATION_TYPE": "U",
    "NORAD_CAT_ID": 58702,
    "ELEMENT_SET_NO": 999,
    "REV_AT_EPOCH": 14060,
    "BSTAR": 0.00010177,
    "MEAN_MOTION_DOT": 0.00002625,
    "MEAN_MOTION_DDOT": 0
   }
  },
  {
   "norad": 58703,
   "name": "TIANMU-1 18",
   "intl": "2024-004D",
   "group": "weather",
   "gcat": {
    "class": "B",
    "category": "MET",
    "owner": "TIANMU",
    "state": "CN"
   },
   "omm": {
    "OBJECT_NAME": "TIANMU-1 18",
    "OBJECT_ID": "2024-004D",
    "EPOCH": "2026-07-18T20:00:26.855424",
    "MEAN_MOTION": 15.26950445,
    "ECCENTRICITY": 0.0004079,
    "INCLINATION": 97.4666,
    "RA_OF_ASC_NODE": 25.9987,
    "ARG_OF_PERICENTER": 208.7317,
    "MEAN_ANOMALY": 151.3697,
    "EPHEMERIS_TYPE": 0,
    "CLASSIFICATION_TYPE": "U",
    "NORAD_CAT_ID": 58703,
    "ELEMENT_SET_NO": 999,
    "REV_AT_EPOCH": 14060,
    "BSTAR": 0.00010318,
    "MEAN_MOTION_DOT": 0.00002655,
    "MEAN_MOTION_DDOT": 0
   }
  },
  {
   "norad": 58660,
   "name": "TIANMU-1 19",
   "intl": "2023-208A",
   "group": "weather",
   "gcat": {
    "class": "B",
    "category": "MET",
    "owner": "TIANMU",
    "state": "CN"
   },
   "omm": {
    "OBJECT_NAME": "TIANMU-1 19",
    "OBJECT_ID": "2023-208A",
    "EPOCH": "2026-07-18T20:07:43.063968",
    "MEAN_MOTION": 15.32008618,
    "ECCENTRICITY": 0.0004969,
    "INCLINATION": 97.4529,
    "RA_OF_ASC_NODE": 316.3144,
    "ARG_OF_PERICENTER": 185.0539,
    "MEAN_ANOMALY": 175.0653,
    "EPHEMERIS_TYPE": 0,
    "CLASSIFICATION_TYPE": "U",
    "NORAD_CAT_ID": 58660,
    "ELEMENT_SET_NO": 999,
    "REV_AT_EPOCH": 14217,
    "BSTAR": 0.00014531,
    "MEAN_MOTION_DOT": 0.00004412,
    "MEAN_MOTION_DDOT": 0
   }
  },
  {
   "norad": 58661,
   "name": "TIANMU-1 20",
   "intl": "2023-208B",
   "group": "weather",
   "gcat": {
    "class": "B",
    "category": "MET",
    "owner": "TIANMU",
    "state": "CN"
   },
   "omm": {
    "OBJECT_NAME": "TIANMU-1 20",
    "OBJECT_ID": "2023-208B",
    "EPOCH": "2026-07-18T20:26:47.988384",
    "MEAN_MOTION": 15.33197756,
    "ECCENTRICITY": 0.0006695,
    "INCLINATION": 97.4471,
    "RA_OF_ASC_NODE": 316.9961,
    "ARG_OF_PERICENTER": 198.2341,
    "MEAN_ANOMALY": 161.8662,
    "EPHEMERIS_TYPE": 0,
    "CLASSIFICATION_TYPE": "U",
    "NORAD_CAT_ID": 58661,
    "ELEMENT_SET_NO": 999,
    "REV_AT_EPOCH": 14227,
    "BSTAR": 0.00013825,
    "MEAN_MOTION_DOT": 0.00004356,
    "MEAN_MOTION_DDOT": 0
   }
  },
  {
   "norad": 58662,
   "name": "TIANMU-1 21",
   "intl": "2023-208C",
   "group": "weather",
   "gcat": {
    "class": "B",
    "category": "MET",
    "owner": "TIANMU",
    "state": "CN"
   },
   "omm": {
    "OBJECT_NAME": "TIANMU-1 21",
    "OBJECT_ID": "2023-208C",
    "EPOCH": "2026-07-18T20:33:58.352832",
    "MEAN_MOTION": 15.35592148,
    "ECCENTRICITY": 0.0007056,
    "INCLINATION": 97.4532,
    "RA_OF_ASC_NODE": 319.821,
    "ARG_OF_PERICENTER": 190.9662,
    "MEAN_ANOMALY": 169.1429,
    "EPHEMERIS_TYPE": 0,
    "CLASSIFICATION_TYPE": "U",
    "NORAD_CAT_ID": 58662,
    "ELEMENT_SET_NO": 999,
    "REV_AT_EPOCH": 14242,
    "BSTAR": 0.00015641,
    "MEAN_MOTION_DOT": 0.00005332,
    "MEAN_MOTION_DDOT": 0
   }
  },
  {
   "norad": 58663,
   "name": "TIANMU-1 22",
   "intl": "2023-208D",
   "group": "weather",
   "gcat": {
    "class": "B",
    "category": "MET",
    "owner": "TIANMU",
    "state": "CN"
   },
   "omm": {
    "OBJECT_NAME": "TIANMU-1 22",
    "OBJECT_ID": "2023-208D",
    "EPOCH": "2026-07-18T19:57:24.031296",
    "MEAN_MOTION": 15.31456716,
    "ECCENTRICITY": 0.0003097,
    "INCLINATION": 97.4525,
    "RA_OF_ASC_NODE": 316.2157,
    "ARG_OF_PERICENTER": 202.7396,
    "MEAN_ANOMALY": 157.3709,
    "EPHEMERIS_TYPE": 0,
    "CLASSIFICATION_TYPE": "U",
    "NORAD_CAT_ID": 58663,
    "ELEMENT_SET_NO": 999,
    "REV_AT_EPOCH": 14217,
    "BSTAR": 0.00012968,
    "MEAN_MOTION_DOT": 0.0000386,
    "MEAN_MOTION_DDOT": 0
   }
  },
  {
   "norad": 58297,
   "name": "UMBRA-07",
   "intl": "2023-174AT",
   "group": "sar",
   "gcat": {
    "class": "B",
    "category": "IMG-R",
    "owner": "UMBRA",
    "state": "US"
   },
   "omm": {
    "OBJECT_NAME": "UMBRA-07",
    "OBJECT_ID": "2023-174AT",
    "EPOCH": "2026-07-18T17:27:16.699968",
    "MEAN_MOTION": 15.09651846,
    "ECCENTRICITY": 0.0001897,
    "INCLINATION": 97.3769,
    "RA_OF_ASC_NODE": 254.304,
    "ARG_OF_PERICENTER": 6.5862,
    "MEAN_ANOMALY": 353.5392,
    "EPHEMERIS_TYPE": 0,
    "CLASSIFICATION_TYPE": "U",
    "NORAD_CAT_ID": 58297,
    "ELEMENT_SET_NO": 999,
    "REV_AT_EPOCH": 14817,
    "BSTAR": 0.00024266,
    "MEAN_MOTION_DOT": 0.00003844,
    "MEAN_MOTION_DDOT": 0
   }
  }
 ]
}
